[{"OBJECT_NAME":"STARLINK-3511","OBJECT_ID":"2022-016AQ","EPOCH":"2026-03-09T21:20:54.137472","MEAN_MOTION":15.08842842,"ECCENTRICITY":0.00012467,"INCLINATION":53.2182,"RA_OF_ASC_NODE":308.1552,"ARG_OF_PERICENTER":94.3109,"MEAN_ANOMALY":265.8026,"EPHEMERIS_TYPE":0,"CLASSIFICATION_TYPE":"U","NORAD_CAT_ID":51752,"ELEMENT_SET_NO":999,"REV_AT_EPOCH":22373,"BSTAR":-1.2868255e-5,"MEAN_MOTION_DOT":-4.93e-6,"MEAN_MOTION_DDOT":0},{"OBJECT_NAME":"CZ-6A DEB","OBJECT_ID":"2022-151KB","EPOCH":"2026-03-09T19:20:41.637408","MEAN_MOTION":14.94061736,"ECCENTRICITY":0.0071589,"INCLINATION":98.7004,"RA_OF_ASC_NODE":166.2159,"ARG_OF_PERICENTER":166.3306,"MEAN_ANOMALY":193.9872,"EPHEMERIS_TYPE":0,"CLASSIFICATION_TYPE":"U","NORAD_CAT_ID":54523,"ELEMENT_SET_NO":999,"REV_AT_EPOCH":17710,"BSTAR":0.0044467837,"MEAN_MOTION_DOT":0.00050189,"MEAN_MOTION_DDOT":0}]
